{
  "type": "FeatureCollection",
  "features": [
    {
      "type": "Feature",
      "properties": {
        "norad_id": 55973,
        "name": "TIANMU-1 03",
        "group": "weather",
        "lat": 36.183571830609196,
        "lon": -11.74105249949506,
        "alt_km": 441.15039707979395,
        "timestamp": "2025-12-25T16:53:14.296782+00:00",
        "meta_object_name": "TIANMU-1 03",
        "meta_object_id": "2023-039A",
        "meta_epoch": "2025-12-25T06:55:07.442112",
        "meta_mean_motion": 15.41287164,
        "meta_eccentricity": 0.00037818,
        "meta_inclination": 97.5115,
        "meta_ra_of_asc_node": 162.2933,
        "meta_arg_of_pericenter": 24.4924,
        "meta_mean_anomaly": 335.6502,
        "meta_ephemeris_type": 0,
        "meta_classification_type": "U",
        "meta_norad_cat_id": 55973,
        "meta_element_set_no": 999,
        "meta_rev_at_epoch": 15399,
        "meta_bstar": 0.00039866104,
        "meta_mean_motion_dot": 0.00016526,
        "meta_mean_motion_ddot": 0,
        "tle_line1": "1 55973U 23039A   25359.28828058  .00016526  00000+0  39866-3 0  9995",
        "tle_line2": "2 55973  97.5115 162.2933 0003781  24.4924 335.6502 15.41287164153999"
      },
      "geometry": {
        "type": "Point",
        "coordinates": [
          -11.74105249949506,
          36.183571830609196
        ]
      }
    },
    {
      "type": "Feature",
      "properties": {
        "norad_id": 55974,
        "name": "TIANMU-1 04",
        "group": "weather",
        "lat": -81.88356546323524,
        "lon": -130.5201605760571,
        "alt_km": 449.28766558941606,
        "timestamp": "2025-12-25T16:53:14.296799+00:00",
        "meta_object_name": "TIANMU-1 04",
        "meta_object_id": "2023-039B",
        "meta_epoch": "2025-12-25T06:21:33.009696",
        "meta_mean_motion": 15.4163016,
        "meta_eccentricity": 0.00043782,
        "meta_inclination": 97.5046,
        "meta_ra_of_asc_node": 161.4554,
        "meta_arg_of_pericenter": 17.6388,
        "meta_mean_anomaly": 342.501,
        "meta_ephemeris_type": 0,
        "meta_classification_type": "U",
        "meta_norad_cat_id": 55974,
        "meta_element_set_no": 999,
        "meta_rev_at_epoch": 15399,
        "meta_bstar": 0.00040222975,
        "meta_mean_motion_dot": 0.00016868,
        "meta_mean_motion_ddot": 0,
        "tle_line1": "1 55974U 23039B   25359.26496539  .00016868  00000+0  40223-3 0  9997",
        "tle_line2": "2 55974  97.5046 161.4554 0004378  17.6388 342.5010 15.41630160153993"
      },
      "geometry": {
        "type": "Point",
        "coordinates": [
          -130.5201605760571,
          -81.88356546323524
        ]
      }
    },
    {
      "type": "Feature",
      "properties": {
        "norad_id": 55975,
        "name": "TIANMU-1 05",
        "group": "weather",
        "lat": -71.35856619312263,
        "lon": -174.58218795733046,
        "alt_km": 450.83748078931603,
        "timestamp": "2025-12-25T16:53:14.296816+00:00",
        "meta_object_name": "TIANMU-1 05",
        "meta_object_id": "2023-039C",
        "meta_epoch": "2025-12-25T06:17:44.886912",
        "meta_mean_motion": 15.41243353,
        "meta_eccentricity": 0.00039213,
        "meta_inclination": 97.5093,
        "meta_ra_of_asc_node": 161.9455,
        "meta_arg_of_pericenter": 43.7511,
        "meta_mean_anomaly": 316.4045,
        "meta_ephemeris_type": 0,
        "meta_classification_type": "U",
        "meta_norad_cat_id": 55975,
        "meta_element_set_no": 999,
        "meta_rev_at_epoch": 15397,
        "meta_bstar": 0.00041087612,
        "meta_mean_motion_dot": 0.00017012,
        "meta_mean_motion_ddot": 0,
        "tle_line1": "1 55975U 23039C   25359.26232508  .00017012  00000+0  41088-3 0  9994",
        "tle_line2": "2 55975  97.5093 161.9455 0003921  43.7511 316.4045 15.41243353153972"
      },
      "geometry": {
        "type": "Point",
        "coordinates": [
          -174.58218795733046,
          -71.35856619312263
        ]
      }
    },
    {
      "type": "Feature",
      "properties": {
        "norad_id": 55976,
        "name": "TIANMU-1 06",
        "group": "weather",
        "lat": -80.06182025386329,
        "lon": -65.97306069617943,
        "alt_km": 450.39529288029553,
        "timestamp": "2025-12-25T16:53:14.296832+00:00",
        "meta_object_name": "TIANMU-1 06",
        "meta_object_id": "2023-039D",
        "meta_epoch": "2025-12-25T06:24:04.739328",
        "meta_mean_motion": 15.4168129,
        "meta_eccentricity": 0.00041851,
        "meta_inclination": 97.5104,
        "meta_ra_of_asc_node": 162.4255,
        "meta_arg_of_pericenter": 37.6274,
        "meta_mean_anomaly": 322.5265,
        "meta_ephemeris_type": 0,
        "meta_classification_type": "U",
        "meta_norad_cat_id": 55976,
        "meta_element_set_no": 999,
        "meta_rev_at_epoch": 15399,
        "meta_bstar": 0.00040025191,
        "meta_mean_motion_dot": 0.00016813,
        "meta_mean_motion_ddot": 0,
        "tle_line1": "1 55976U 23039D   25359.26672152  .00016813  00000+0  40025-3 0  9996",
        "tle_line2": "2 55976  97.5104 162.4255 0004185  37.6274 322.5265 15.41681290153991"
      },
      "geometry": {
        "type": "Point",
        "coordinates": [
          -65.97306069617943,
          -80.06182025386329
        ]
      }
    },
    {
      "type": "Feature",
      "properties": {
        "norad_id": 56232,
        "name": "FENGYUN 3G",
        "group": "weather",
        "lat": -43.63325884795914,
        "lon": 107.34001513825062,
        "alt_km": 412.1525266878125,
        "timestamp": "2025-12-25T16:53:14.296849+00:00",
        "meta_object_name": "FENGYUN 3G",
        "meta_object_id": "2023-055A",
        "meta_epoch": "2025-12-25T06:20:50.610624",
        "meta_mean_motion": 15.52057994,
        "meta_eccentricity": 0.000394,
        "meta_inclination": 49.9926,
        "meta_ra_of_asc_node": 162.8065,
        "meta_arg_of_pericenter": 289.0842,
        "meta_mean_anomaly": 70.9698,
        "meta_ephemeris_type": 0,
        "meta_classification_type": "U",
        "meta_norad_cat_id": 56232,
        "meta_element_set_no": 999,
        "meta_rev_at_epoch": 15297,
        "meta_bstar": 0.00051015393,
        "meta_mean_motion_dot": 0.00031043,
        "meta_mean_motion_ddot": 0,
        "tle_line1": "1 56232U 23055A   25359.26447466  .00031043  00000+0  51015-3 0  9991",
        "tle_line2": "2 56232  49.9926 162.8065 0003940 289.0842  70.9698 15.52057994152976"
      },
      "geometry": {
        "type": "Point",
        "coordinates": [
          107.34001513825062,
          -43.63325884795914
        ]
      }
    },
    {
      "type": "Feature",
      "properties": {
        "norad_id": 57166,
        "name": "METEOR-M2 3",
        "group": "weather",
        "lat": 67.34194883110501,
        "lon": 31.665615711444687,
        "alt_km": 805.609543790214,
        "timestamp": "2025-12-25T16:53:14.296869+00:00",
        "meta_object_name": "METEOR-M2 3",
        "meta_object_id": "2023-091A",
        "meta_epoch": "2025-12-25T06:26:48.385248",
        "meta_mean_motion": 14.24027548,
        "meta_eccentricity": 0.0003243,
        "meta_inclination": 98.6361,
        "meta_ra_of_asc_node": 52.5882,
        "meta_arg_of_pericenter": 329.6003,
        "meta_mean_anomaly": 30.4988,
        "meta_ephemeris_type": 0,
        "meta_classification_type": "U",
        "meta_norad_cat_id": 57166,
        "meta_element_set_no": 999,
        "meta_rev_at_epoch": 12976,
        "meta_bstar": 2.0040202e-05,
        "meta_mean_motion_dot": 3e-08,
        "meta_mean_motion_ddot": 0,
        "tle_line1": "1 57166U 23091A   25359.26861557  .00000003  00000+0  20040-4 0  9996",
        "tle_line2": "2 57166  98.6361  52.5882 0003243 329.6003  30.4988 14.24027548129769"
      },
      "geometry": {
        "type": "Point",
        "coordinates": [
          31.665615711444687,
          67.34194883110501
        ]
      }
    },
    {
      "type": "Feature",
      "properties": {
        "norad_id": 57399,
        "name": "TIANMU-1 07",
        "group": "weather",
        "lat": 66.52310942808879,
        "lon": 32.13622934526779,
        "alt_km": 471.35449210217666,
        "timestamp": "2025-12-25T16:53:14.296888+00:00",
        "meta_object_name": "TIANMU-1 07",
        "meta_object_id": "2023-101A",
        "meta_epoch": "2025-12-25T07:09:50.863104",
        "meta_mean_motion": 15.28247081,
        "meta_eccentricity": 0.00049984,
        "meta_inclination": 97.2856,
        "meta_ra_of_asc_node": 48.8712,
        "meta_arg_of_pericenter": 49.2168,
        "meta_mean_anomaly": 310.9505,
        "meta_ephemeris_type": 0,
        "meta_classification_type": "U",
        "meta_norad_cat_id": 57399,
        "meta_element_set_no": 999,
        "meta_rev_at_epoch": 13507,
        "meta_bstar": 0.00028731028,
        "meta_mean_motion_dot": 7.838e-05,
        "meta_mean_motion_ddot": 0,
        "tle_line1": "1 57399U 23101A   25359.29850536  .00007838  00000+0  28731-3 0  9991",
        "tle_line2": "2 57399  97.2856  48.8712 0004998  49.2168 310.9505 15.28247081135079"
      },
      "geometry": {
        "type": "Point",
        "coordinates": [
          32.13622934526779,
          66.52310942808879
        ]
      }
    }
  ]
}